TIANMU-1 20             
1 58661U 23208B   26167.28014318  .00006824  00000+0  21817-3 0  9991
2 58661  97.4452 284.2093 0006098 337.7612  22.3364 15.32753679137288
TIANMU-1 21             
1 58662U 23208C   26167.26985122  .00007987  00000+0  23703-3 0  9997
2 58662  97.4510 286.8755 0006017 327.6099  32.4774 15.35063641137424
TIANMU-1 22             
1 58663U 23208D   26167.28845181  .00006221  00000+0  21001-3 0  9999
2 58663  97.4506 283.5199 0003314   7.4757 352.6533 15.31047874137197
TIANMU-1 15             
1 58700U 24004A   26167.31228236  .00004635  00000+0  17758-3 0  9997
2 58700  97.4663 353.5022 0006802   5.4904 354.6408 15.27016102135649
TIANMU-1 16             
1 58701U 24004B   26167.30136137  .00004606  00000+0  17796-3 0  9995
2 58701  97.4608 352.7292 0005931  10.8483 349.2882 15.26741064135640
TIANMU-1 17             
1 58702U 24004C   26167.28681433  .00004598  00000+0  17768-3 0  9996
2 58702  97.4637 353.1993 0005625  17.4232 342.7199 15.26740238135631
TIANMU-1 18             
1 58703U 24004D   26167.32888620  .00004514  00000+0  17317-3 0  9997
2 58703  97.4656 353.4963 0004124  18.2717 341.8669 15.26998016135645
INSAT-3DS               
1 58990U 24033A   26167.05949030 -.00000156  00000+0  00000+0 0  9996
2 58990   0.0433 115.2465 0000984 319.0342 293.5710  1.00271416 47055
METEOR-M2 4             
1 59051U 24039A   26167.26898670  .00000000  00000+0  19811-4 0  9999
2 59051  98.7010 126.5785 0007231 163.5389 196.6025 14.22429447119132
GOES 19                 
1 60133U 24119A   26167.22708455 -.00000249  00000+0  00000+0 0  9999
2 60133   0.0041 114.8136 0000424  73.1428  83.1050  1.00271553  6950
MTG-S1                  
1 64723U 25143A   26167.11381704 -.00000031  00000+0  00000+0 0  9997
2 64723   0.6041 338.7016 0000988  11.4839 311.7067  1.00271993  3408
METOP-SGA1              
1 65159U 25172A   26167.15332899  .00000049  00000+0  42000-4 0  9997
2 65159  98.6644 226.8998 0000902  93.8213 266.3067 14.21509720 43644
FENGYUN 3H              
1 65815U 25219A   26167.26592826  .00000039  00000+0  38705-4 0  9994
2 65815  98.6768 108.0529 0001585  77.0310 283.1043 14.19920355 37250
