OBJECT_NAME,OBJECT_ID,EPOCH,MEAN_MOTION,ECCENTRICITY,INCLINATION,RA_OF_ASC_NODE,ARG_OF_PERICENTER,MEAN_ANOMALY,EPHEMERIS_TYPE,CLASSIFICATION_TYPE,NORAD_CAT_ID,ELEMENT_SET_NO,REV_AT_EPOCH,BSTAR,MEAN_MOTION_DOT,MEAN_MOTION_DDOT
TIANMU-1 20,2023-208B,2026-06-16T06:43:24.370752,15.32753679,.00060985,97.4452,284.2093,337.7612,22.3364,0,U,58661,999,13728,.21816681E-3,.6824E-4,0
TIANMU-1 21,2023-208C,2026-06-16T06:28:35.145408,15.35063641,.00060177,97.4510,286.8755,327.6099,32.4774,0,U,58662,999,13742,.23703271E-3,.7987E-4,0
TIANMU-1 22,2023-208D,2026-06-16T06:55:22.236384,15.31047874,.00033142,97.4506,283.5199,7.4757,352.6533,0,U,58663,999,13719,.21001201E-3,.6221E-4,0
TIANMU-1 15,2024-004A,2026-06-16T07:29:41.195904,15.27016102,.00068025,97.4663,353.5022,5.4904,354.6408,0,U,58700,999,13564,.17758398E-3,.4635E-4,0
TIANMU-1 16,2024-004B,2026-06-16T07:13:57.622368,15.26741064,.00059315,97.4608,352.7292,10.8483,349.2882,0,U,58701,999,13564,.17795904E-3,.4606E-4,0
TIANMU-1 17,2024-004C,2026-06-16T06:53:00.758112,15.26740238,.00056253,97.4637,353.1993,17.4232,342.7199,0,U,58702,999,13563,.17768162E-3,.4598E-4,0
TIANMU-1 18,2024-004D,2026-06-16T07:53:35.767680,15.26998016,.0004124,97.4656,353.4963,18.2717,341.8669,0,U,58703,999,13564,.17317075E-3,.4514E-4,0
INSAT-3DS,2024-033A,2026-06-16T01:25:39.961920,1.00271416,.00009849,0.0433,115.2465,319.0342,293.5710,0,U,58990,999,4705,0,-.156E-5,0
METEOR-M2 4,2024-039A,2026-06-16T06:27:20.450880,14.22429447,.00072312,98.7010,126.5785,163.5389,196.6025,0,U,59051,999,11913,.1981115E-4,0,0
GOES 19,2024-119A,2026-06-16T05:27:00.105120,1.00271553,.00004245,0.0041,114.8136,73.1428,83.1050,0,U,60133,999,695,0,-.249E-5,0
MTG-S1,2025-143A,2026-06-16T02:43:53.792256,1.00271993,.00009885,0.6041,338.7016,11.4839,311.7067,0,U,64723,999,340,0,-.31E-6,0
METOP-SGA1,2025-172A,2026-06-16T03:40:47.624736,14.21509720,.0000902,98.6644,226.8998,93.8213,266.3067,0,U,65159,999,4364,.41999845E-4,.49E-6,0
FENGYUN 3H,2025-219A,2026-06-16T06:22:56.201664,14.19920355,.00015851,98.6768,108.0529,77.0310,283.1043,0,U,65815,999,3725,.38704858E-4,.39E-6,0
